NORAD_CAT_ID,OBJECT_NAME,OBJECT_TYPE,EPOCH,MEAN_MOTION,ECCENTRICITY,INCLINATION,RA_OF_ASC_NODE,ARG_OF_PERICENTER,MEAN_ANOMALY,BSTAR,MEAN_MOTION_DOT,MEAN_MOTION_DDOT,TLE_LINE0,TLE_LINE1,TLE_LINE2,SEMIMAJOR_AXIS,PERIOD,APOGEE,PERIGEE,DECAYED
51872.0,STARLINK-3554,PAYLOAD,2022-08-24 22:00:00,15.08825877,0.0001613,53.2173,52.6061,68.5668,128.0638,0.0028612,0.00045525,0.0,0 STARLINK-3554,1 51872U 22022W   22236.91667824  .00045525  00000-0  28612-2 0  9991,2 51872  53.2173  52.6061 0001613  68.5668 128.0638 15.08825877  1309,6917.924,95.438,540.904,538.673,0.0
51872.0,STARLINK-3554,PAYLOAD,2022-08-25 06:00:02,15.08854308,0.000149,53.2173,51.1079,74.7131,133.5805,-0.00099127,-0.00016036,0.0,0 STARLINK-3554,1 51872U 22022W   22237.25002315 -.00016036  00000-0 -99127-3 0  9994,2 51872  53.2173  51.1079 0001490  74.7131 133.5805 15.08854308 27990,6917.837,95.437,540.732,538.6709999999998,0.0
51872.0,STARLINK-3554,PAYLOAD,2022-08-25 14:00:01,15.08840622,0.0001484,53.2174,49.6118,75.8202,143.9874,-0.0011972999999999,-0.00019293,0.0,0 STARLINK-3554,1 51872U 22022W   22237.58334491 -.00019293  00000-0 -11973-2 0  9993,2 51872  53.2174  49.6118 0001484  75.8202 143.9874 15.08840622  1303,6917.878000000002,95.438,540.77,538.717,0.0
51872.0,STARLINK-3554,PAYLOAD,2022-08-25 22:00:00,15.08809268,0.0001543,53.2174,48.1168,66.0848,165.3202,0.0031265,0.0004978,0.0,0 STARLINK-3554,1 51872U 22022W   22237.91667824  .00049780  00000-0  31265-2 0  9997,2 51872  53.2174  48.1168 0001543  66.0848 165.3202 15.08809268  1300,6917.974,95.439,540.9069999999998,538.7719999999998,0.0
51872.0,STARLINK-3554,PAYLOAD,2022-08-26 14:00:01,15.08853799,0.0001516,53.2178,45.1225,74.2843,180.3464,-0.0013065,-0.00021029,0.0,0 STARLINK-3554,1 51872U 22022W   22238.58335648 -.00021029  00000-0 -13065-2 0  9993,2 51872  53.2178  45.1225 0001516  74.2843 180.3464 15.08853799  1306,6917.8380000000025,95.437,540.752,538.654,0.0
51872.0,STARLINK-3554,PAYLOAD,2022-08-26 22:00:00,15.08821854,0.0001573,53.2179,43.6274,65.5775,200.5988,0.0030004999999999,0.00047765,0.0,0 STARLINK-3554,1 51872U 22022W   22238.91667824  .00047765  00000-0  30005-2 0  9990,2 51872  53.2179  43.6274 0001573  65.5775 200.5988 15.08821854  1307,6917.936,95.439,540.889,538.7130000000002,0.0
51872.0,STARLINK-3554,PAYLOAD,2022-08-27 14:00:01,15.08879614,0.0001460999999999,53.2184,40.6333,72.6518,216.7194,-0.004361,-0.00069102,0.0,0 STARLINK-3554,1 51872U 22022W   22239.58334491 -.00069102  00000-0 -43610-2 0  9992,2 51872  53.2184  40.6333 0001461  72.6518 216.7194 15.08879614  1301,6917.759,95.435,540.635,538.614,0.0
51872.0,STARLINK-3554,PAYLOAD,2022-08-27 22:00:00,15.08812523,0.0001452,53.2184,39.1381,63.1294,237.8605,0.0027978,0.00044487,0.0,0 STARLINK-3554,1 51872U 22022W   22239.91667824  .00044487  00000-0  27978-2 0  9994,2 51872  53.2184  39.1381 0001452  63.1294 237.8605 15.08812523  1300,6917.964,95.439,540.8340000000002,538.825,0.0
51872.0,STARLINK-3554,PAYLOAD,2022-08-28 06:00:00,15.08819879,0.000134,53.2187,37.64,71.9751,240.604,0.0021417,0.00033943,0.0,0 STARLINK-3554,1 51872U 22022W   22240.25001157  .00033943  00000-0  21417-2 0  9991,2 51872  53.2187  37.6400 0001340  71.9751 240.6040 15.08819879 28449,6917.941999999999,95.439,540.734,538.88,0.0
51872.0,STARLINK-3554,PAYLOAD,2022-08-28 14:00:01,15.08859673,0.0001393,53.219,36.1443,71.1212,253.0398,-0.0014003,-0.00022516,0.0,0 STARLINK-3554,1 51872U 22022W   22240.58334491 -.00022516  00000-0 -14003-2 0  9996,2 51872  53.2190  36.1443 0001393  71.1212 253.0398 15.08859673  1302,6917.82,95.436,540.649,538.722,0.0
51872.0,STARLINK-3554,PAYLOAD,2022-08-28 22:00:00,15.08844119,0.000145,53.2187,34.6489,63.6115,272.1561,0.00012171,1.65e-05,0.0,0 STARLINK-3554,1 51872U 22022W   22240.91667824  .00001650  00000-0  12171-3 0  9991,2 51872  53.2187  34.6489 0001450  63.6115 272.1561 15.08844119 28541,6917.868,95.437,540.736,538.73,0.0
51872.0,STARLINK-3554,PAYLOAD,2022-08-29 14:00:01,15.08842338,0.0001473,53.2192,31.6556,73.247,285.6945,-0.0018074,-0.00028939,0.0,0 STARLINK-3554,1 51872U 22022W   22241.58334491 -.00028939  00000-0 -18074-2 0  9994,2 51872  53.2192  31.6556 0001473  73.2470 285.6945 15.08842338  1306,6917.873000000001,95.437,540.757,538.719,0.0
51872.0,STARLINK-3554,PAYLOAD,2022-08-29 22:00:00,15.08823117,0.0001476,53.2187,30.1601,65.6092,304.9235,0.0019326,0.00030589,0.0,0 STARLINK-3554,1 51872U 22022W   22241.91667824  .00030589  00000-0  19326-2 0  9993,2 51872  53.2187  30.1601 0001476  65.6092 304.9235 15.08823117  1304,6917.932,95.439,540.818,538.776,0.0
51872.0,STARLINK-3554,PAYLOAD,2022-08-30 14:00:01,15.08859356,0.0001429,53.219,27.167,73.2904,320.4128,-0.0018372,-0.00029423,0.0,0 STARLINK-3554,1 51872U 22022W   22242.58334491 -.00029423  00000-0 -18372-2 0  9995,2 51872  53.2190  27.1670 0001429  73.2904 320.4128 15.08859356  1303,6917.821,95.436,540.675,538.698,0.0
51872.0,STARLINK-3554,PAYLOAD,2022-08-30 22:00:00,15.08840251,0.0001383,53.2185,25.6714,65.2931,340.0161,-0.0010025,-0.00016207,0.0,0 STARLINK-3554,1 51872U 22022W   22242.91667824 -.00016207  00000-0 -10025-2 0  9994,2 51872  53.2185  25.6714 0001383  65.2931 340.0161 15.08840251  1308,6917.88,95.438,540.701,538.788,0.0
51872.0,STARLINK-3554,PAYLOAD,2022-08-31 14:00:01,15.08843663,0.0001339,53.2186,22.6786,71.4969,356.9732,-0.0016858,-0.0002702,0.0,0 STARLINK-3554,1 51872U 22022W   22243.58334491 -.00027020  00000-0 -16858-2 0  9994,2 51872  53.2186  22.6786 0001339  71.4969 356.9732 15.08843663 28956,6917.869000000002,95.437,540.66,538.808,0.0
51872.0,STARLINK-3554,PAYLOAD,2022-08-31 22:00:00,15.08831819,0.0001343,53.2183,21.1827,63.7113,16.3476,0.0010561,0.00016556,0.0,0 STARLINK-3554,1 51872U 22022W   22243.91667824  .00016556  00000-0  10561-2 0  9995,2 51872  53.2183  21.1827 0001343  63.7113  16.3476 15.08831819  1305,6917.905,95.438,540.6990000000002,538.841,0.0
51872.0,STARLINK-3554,PAYLOAD,2022-09-01 06:00:00,15.08817574,0.0001246,53.2183,19.6848,74.5549,17.102,0.0029543,0.00047014,0.0,0 STARLINK-3554,1 51872U 22022W   22244.25001157  .00047014  00000-0  29543-2 0  9997,2 51872  53.2183  19.6848 0001246  74.5549  17.1020 15.08817574 29053,6917.949000000001,95.439,540.6759999999998,538.952,0.0
51872.0,STARLINK-3554,PAYLOAD,2022-09-01 14:00:01,15.08859275,0.000138,53.2184,18.1898,69.44,33.8667,-0.0015906,-0.00025526,0.0,0 STARLINK-3554,1 51872U 22022W   22244.58335648 -.00025526  00000-0 -15906-2 0  9992,2 51872  53.2184  18.1898 0001380  69.4400  33.8667 15.08859275  1305,6917.821,95.436,540.641,538.732,0.0
51872.0,STARLINK-3554,PAYLOAD,2022-09-01 22:00:00,15.08855793,0.000144,53.2183,16.6938,63.4485,51.4019,-0.0019905,-0.00031841,0.0,0 STARLINK-3554,1 51872U 22022W   22244.91667824 -.00031841  00000-0 -19905-2 0  9993,2 51872  53.2183  16.6938 0001440  63.4485  51.4019 15.08855793 29157,6917.831999999999,95.437,540.693,538.701,0.0
51872.0,STARLINK-3554,PAYLOAD,2022-09-02 14:00:01,15.08845987,0.000152,53.2185,13.7009,68.5901,69.4434,-0.0013235999999999,-0.00021295,0.0,0 STARLINK-3554,1 51872U 22022W   22245.58334491 -.00021295  00000-0 -13236-2 0  9991,2 51872  53.2185  13.7009 0001520  68.5901  69.4434 15.08845987 29259,6917.861999999999,95.437,540.779,538.6759999999998,0.0
51872.0,STARLINK-3554,PAYLOAD,2022-09-02 22:00:01,15.08858326,0.0001565999999999,53.2185,12.2047,64.0409,85.6457,-0.0024176,-0.00038578,0.0,0 STARLINK-3554,1 51872U 22022W   22245.91668981 -.00038578  00000-0 -24176-2 0  9999,2 51872  53.2185  12.2047 0001566  64.0409  85.6457 15.08858326  1301,6917.824000000001,95.436,540.773,538.606,0.0
51872.0,STARLINK-3554,PAYLOAD,2022-09-03 08:00:01,15.08818998,0.0001578,53.2189,10.3327,74.6096,179.5143,0.0018249,0.00028858,0.0,0 STARLINK-3554,1 51872U 22022W   22246.33334491  .00028858  00000-0  18249-2 0  9994,2 51872  53.2189  10.3327 0001578  74.6096 179.5143 15.08818998 29369,6917.945,95.439,540.901,538.7180000000002,0.0
51872.0,STARLINK-3554,PAYLOAD,2022-09-03 14:00:01,15.08838091,0.0001655,53.2188,9.212,67.9301,104.8792,-0.00093019,-0.00015061,0.0,0 STARLINK-3554,1 51872U 22022W   22246.58334491 -.00015061  00000-0 -93019-3 0  9994,2 51872  53.2188   9.2120 0001655  67.9301 104.8792 15.08838091  1307,6917.886,95.438,540.896,538.606,0.0
51872.0,STARLINK-3554,PAYLOAD,2022-09-03 22:00:00,15.08851451,0.0001649,53.2188,7.7156,64.2391,120.1599,-0.00020138,-3.493e-05,0.0,0 STARLINK-3554,1 51872U 22022W   22246.91667824 -.00003493  00000-0 -20138-3 0  9998,2 51872  53.2188   7.7156 0001649  64.2391 120.1599 15.08851451  1302,6917.845,95.437,540.851,538.57,0.0
51872.0,STARLINK-3554,PAYLOAD,2022-09-04 06:00:00,15.08841385,0.0001530999999999,53.2191,6.2177,72.3853,123.6312,0.0024761999999999,0.00039342,0.0,0 STARLINK-3554,1 51872U 22022W   22247.25001157  .00039342  00000-0  24762-2 0  9993,2 51872  53.2191   6.2177 0001531  72.3853 123.6312 15.08841385 29504,6917.876,95.437,540.8,538.682,0.0
51872.0,STARLINK-3554,PAYLOAD,2022-09-04 14:00:01,15.08867208,0.0001554999999999,53.2191,4.7228,64.9596,142.7372,-0.0029064,-0.00046281,0.0,0 STARLINK-3554,1 51872U 22022W   22247.58335648 -.00046281  00000-0 -29064-2 0  9996,2 51872  53.2191   4.7228 0001555  64.9596 142.7372 15.08867208  1309,6917.797,95.436,540.738,538.587,0.0
51872.0,STARLINK-3554,PAYLOAD,2022-09-04 20:00:01,15.08851674,0.0001486,53.219,3.6009,58.0924,68.2639,-0.00034438,-5.766e-05,0.0,0 STARLINK-3554,1 51872U 22022W   22247.83334491 -.00005766  00000-0 -34438-3 0  9994,2 51872  53.2190   3.6009 0001486  58.0924  68.2639 15.08851674 29594,6917.845,95.437,540.738,538.682,0.0
51872.0,STARLINK-3554,PAYLOAD,2022-09-05 14:00:01,15.08872398,0.0001422,53.2193,0.2337,62.4152,180.0553,-0.0032876999999999,-0.00052278,0.0,0 STARLINK-3554,1 51872U 22022W   22248.58334491 -.00052278  00000-0 -32877-2 0  9991,2 51872  53.2193   0.2337 0001422  62.4152 180.0553 15.08872398  1309,6917.781,95.436,540.63,538.663,0.0
